{
  "type": "FeatureCollection",
  "features": [
    {
      "type": "Feature",
      "properties": {
        "norad_id": 30127,
        "name": "FENGYUN 1C DEB",
        "group": "fengyun-1c-debris",
        "lat": 80.52965873870126,
        "lon": 154.5105757616839,
        "alt_km": 710.7480680535728,
        "timestamp": "2025-12-24T09:46:31.278137+00:00",
        "meta_object_name": "FENGYUN 1C DEB",
        "meta_object_id": "1999-025SG",
        "meta_epoch": "2025-12-22T20:39:04.630464",
        "meta_mean_motion": 14.38126393,
        "meta_eccentricity": 0.00858936,
        "meta_inclination": 98.2057,
        "meta_ra_of_asc_node": 212.9195,
        "meta_arg_of_pericenter": 48.8179,
        "meta_mean_anomaly": 312.0376,
        "meta_ephemeris_type": 0,
        "meta_classification_type": "U",
        "meta_norad_cat_id": 30127,
        "meta_element_set_no": 999,
        "meta_rev_at_epoch": 97381,
        "meta_bstar": 0.0023892601,
        "meta_mean_motion_dot": 7.527e-05,
        "meta_mean_motion_ddot": 0,
        "tle_line1": "1 30127U 99025SG  25356.86047026  .00007527  00000+0  23893-2 0  9999",
        "tle_line2": "2 30127  98.2057 212.9195 0085893  48.8179 312.0376 14.38126393973815"
      },
      "geometry": {
        "type": "Point",
        "coordinates": [
          154.5105757616839,
          80.52965873870126
        ]
      }
    },
    {
      "type": "Feature",
      "properties": {
        "norad_id": 30128,
        "name": "FENGYUN 1C DEB",
        "group": "fengyun-1c-debris",
        "lat": 40.84379431271356,
        "lon": -10.975974946582358,
        "alt_km": 681.8965524483783,
        "timestamp": "2025-12-24T09:46:31.278148+00:00",
        "meta_object_name": "FENGYUN 1C DEB",
        "meta_object_id": "1999-025SH",
        "meta_epoch": "2025-12-23T23:54:45.408096",
        "meta_mean_motion": 14.46297008,
        "meta_eccentricity": 0.0107536,
        "meta_inclination": 96.9802,
        "meta_ra_of_asc_node": 354.7651,
        "meta_arg_of_pericenter": 89.5907,
        "meta_mean_anomaly": 334.2233,
        "meta_ephemeris_type": 0,
        "meta_classification_type": "U",
        "meta_norad_cat_id": 30128,
        "meta_element_set_no": 999,
        "meta_rev_at_epoch": 97474,
        "meta_bstar": 0.0025939,
        "meta_mean_motion_dot": 9.967e-05,
        "meta_mean_motion_ddot": 0,
        "tle_line1": "1 30128U 99025SH  25357.99635889  .00009967  00000+0  25939-2 0  9998",
        "tle_line2": "2 30128  96.9802 354.7651 0107536  89.5907 334.2233 14.46297008974743"
      },
      "geometry": {
        "type": "Point",
        "coordinates": [
          -10.975974946582358,
          40.84379431271356
        ]
      }
    },
    {
      "type": "Feature",
      "properties": {
        "norad_id": 30129,
        "name": "FENGYUN 1C DEB",
        "group": "fengyun-1c-debris",
        "lat": -71.95464795326272,
        "lon": -35.44721162368957,
        "alt_km": 987.6989721861573,
        "timestamp": "2025-12-24T09:46:31.278158+00:00",
        "meta_object_name": "FENGYUN 1C DEB",
        "meta_object_id": "1999-025SJ",
        "meta_epoch": "2025-12-23T07:25:32.610144",
        "meta_mean_motion": 14.01599859,
        "meta_eccentricity": 0.0188364,
        "meta_inclination": 98.0305,
        "meta_ra_of_asc_node": 297.9071,
        "meta_arg_of_pericenter": 62.4786,
        "meta_mean_anomaly": 88.7378,
        "meta_ephemeris_type": 0,
        "meta_classification_type": "U",
        "meta_norad_cat_id": 30129,
        "meta_element_set_no": 999,
        "meta_rev_at_epoch": 96626,
        "meta_bstar": 0.00062933,
        "meta_mean_motion_dot": 1.078e-05,
        "meta_mean_motion_ddot": 0,
        "tle_line1": "1 30129U 99025SJ  25357.30940521  .00001078  00000+0  62933-3 0  9997",
        "tle_line2": "2 30129  98.0305 297.9071 0188364  62.4786  88.7378 14.01599859966261"
      },
      "geometry": {
        "type": "Point",
        "coordinates": [
          -35.44721162368957,
          -71.95464795326272
        ]
      }
    },
    {
      "type": "Feature",
      "properties": {
        "norad_id": 30131,
        "name": "FENGYUN 1C DEB",
        "group": "fengyun-1c-debris",
        "lat": 74.10741852613852,
        "lon": -55.288894319687174,
        "alt_km": 759.2643480256229,
        "timestamp": "2025-12-24T09:46:31.278168+00:00",
        "meta_object_name": "FENGYUN 1C DEB",
        "meta_object_id": "1999-025SL",
        "meta_epoch": "2025-12-23T04:50:20.998752",
        "meta_mean_motion": 14.21292224,
        "meta_eccentricity": 0.00822113,
        "meta_inclination": 99.0749,
        "meta_ra_of_asc_node": 89.3232,
        "meta_arg_of_pericenter": 129.5074,
        "meta_mean_anomaly": 288.3292,
        "meta_ephemeris_type": 0,
        "meta_classification_type": "U",
        "meta_norad_cat_id": 30131,
        "meta_element_set_no": 999,
        "meta_rev_at_epoch": 96837,
        "meta_bstar": 0.002441194,
        "meta_mean_motion_dot": 5.464e-05,
        "meta_mean_motion_ddot": 0,
        "tle_line1": "1 30131U 99025SL  25357.20163193  .00005464  00000+0  24412-2 0  9993",
        "tle_line2": "2 30131  99.0749  89.3232 0082211 129.5074 288.3292 14.21292224968373"
      },
      "geometry": {
        "type": "Point",
        "coordinates": [
          -55.288894319687174,
          74.10741852613852
        ]
      }
    },
    {
      "type": "Feature",
      "properties": {
        "norad_id": 30132,
        "name": "FENGYUN 1C DEB",
        "group": "fengyun-1c-debris",
        "lat": 66.04678412911278,
        "lon": -69.9131441891759,
        "alt_km": 854.5935768367362,
        "timestamp": "2025-12-24T09:46:31.278179+00:00",
        "meta_object_name": "FENGYUN 1C DEB",
        "meta_object_id": "1999-025SM",
        "meta_epoch": "2025-12-24T02:38:15.339264",
        "meta_mean_motion": 13.94864994,
        "meta_eccentricity": 0.010555,
        "meta_inclination": 99.5793,
        "meta_ra_of_asc_node": 312.1197,
        "meta_arg_of_pericenter": 19.3674,
        "meta_mean_anomaly": 355.0701,
        "meta_ephemeris_type": 0,
        "meta_classification_type": "U",
        "meta_norad_cat_id": 30132,
        "meta_element_set_no": 999,
        "meta_rev_at_epoch": 96248,
        "meta_bstar": 0.00050415,
        "meta_mean_motion_dot": 6.61e-06,
        "meta_mean_motion_ddot": 0,
        "tle_line1": "1 30132U 99025SM  25358.10989976  .00000661  00000+0  50415-3 0  9996",
        "tle_line2": "2 30132  99.5793 312.1197 0105550  19.3674 355.0701 13.94864994962480"
      },
      "geometry": {
        "type": "Point",
        "coordinates": [
          -69.9131441891759,
          66.04678412911278
        ]
      }
    },
    {
      "type": "Feature",
      "properties": {
        "norad_id": 30133,
        "name": "FENGYUN 1C DEB",
        "group": "fengyun-1c-debris",
        "lat": 81.06219656130895,
        "lon": 95.58796179068004,
        "alt_km": 911.131554754792,
        "timestamp": "2025-12-24T09:46:31.278214+00:00",
        "meta_object_name": "FENGYUN 1C DEB",
        "meta_object_id": "1999-025SN",
        "meta_epoch": "2025-12-23T18:02:41.695872",
        "meta_mean_motion": 14.06721963,
        "meta_eccentricity": 0.00859855,
        "meta_inclination": 98.3247,
        "meta_ra_of_asc_node": 163.5723,
        "meta_arg_of_pericenter": 229.2521,
        "meta_mean_anomaly": 140.7406,
        "meta_ephemeris_type": 0,
        "meta_classification_type": "U",
        "meta_norad_cat_id": 30133,
        "meta_element_set_no": 999,
        "meta_rev_at_epoch": 96533,
        "meta_bstar": 0.0016299812,
        "meta_mean_motion_dot": 2.761e-05,
        "meta_mean_motion_ddot": 0,
        "tle_line1": "1 30133U 99025SN  25357.75187148  .00002761  00000+0  16300-2 0  9995",
        "tle_line2": "2 30133  98.3247 163.5723 0085985 229.2521 140.7406 14.06721963965337"
      },
      "geometry": {
        "type": "Point",
        "coordinates": [
          95.58796179068004,
          81.06219656130895
        ]
      }
    },
    {
      "type": "Feature",
      "properties": {
        "norad_id": 30134,
        "name": "FENGYUN 1C DEB",
        "group": "fengyun-1c-debris",
        "lat": -49.90993935429372,
        "lon": 27.57770735427448,
        "alt_km": 867.8140889211318,
        "timestamp": "2025-12-24T09:46:31.278226+00:00",
        "meta_object_name": "FENGYUN 1C DEB",
        "meta_object_id": "1999-025SP",
        "meta_epoch": "2025-12-23T19:34:40.907136",
        "meta_mean_motion": 14.13366443,
        "meta_eccentricity": 0.00194596,
        "meta_inclination": 98.6928,
        "meta_ra_of_asc_node": 16.5316,
        "meta_arg_of_pericenter": 152.443,
        "meta_mean_anomaly": 28.6289,
        "meta_ephemeris_type": 0,
        "meta_classification_type": "U",
        "meta_norad_cat_id": 30134,
        "meta_element_set_no": 999,
        "meta_rev_at_epoch": 97402,
        "meta_bstar": 0.00041598445,
        "meta_mean_motion_dot": 7.4e-06,
        "meta_mean_motion_ddot": 0,
        "tle_line1": "1 30134U 99025SP  25357.81575124  .00000740  00000+0  41598-3 0  9991",
        "tle_line2": "2 30134  98.6928  16.5316 0019459 152.4430  28.6289 14.13366443974026"
      },
      "geometry": {
        "type": "Point",
        "coordinates": [
          27.57770735427448,
          -49.90993935429372
        ]
      }
    }
  ]
}